53960,SES-20,2022,1436.13,1600.0,+,0.02,Active,1,GSO,USA,SES,Commercial,Communications,Atlas,1 53960U 22123A   24018.66939823 -.00000095  00000+0  00000+0 0  9997,2 53960   0.0194 152.0502 0000782 281.4751 181.8942  1.00269559  4711,1.00269559,7.82e-05,GEO
53961,SES-21,2022,1436.14,1600.0,+,0.03,Active,1,GSO,USA,SES,Commercial,Communications,Atlas,1 53961U 22123B   24016.11484605  .00000073  00000+0  00000+0 0  9994,2 53961   0.0311  35.7087 0001047 256.3561  93.4014  1.00268798  4692,1.00268798,0.0001047,GEO
54755,O3B MPOWER F1,2022,287.93,-1.0,P,0.06,Active,0,MEO,USA,O3b Networks,Unknown,Unknown,Falcon,1 54755U 22174A   24020.51258530 -.00000021  00000+0  00000+0 0  9991,2 54755   0.0592  12.2346 0006216 299.4005 209.3448  5.00118405 21407,5.00118405,0.0006216,MEO
54756,O3B MPOWER F2,2022,288.17,-1.0,P,0.06,Active,0,MEO,USA,O3b Networks,Unknown,Unknown,Falcon,1 54756U 22174B   24009.95962921 -.00000009  00000+0  00000+0 0  9999,2 54756   0.0605  11.3732 0006892 294.8293  53.7330  4.99697769 20952,4.99697769,0.0006892,MEO
55970,SES-18,2023,1436.11,3605.0,+,0.05,Active,1,GSO,USA,SES,Commercial,Communications,Falcon,1 55970U 23038A   24020.61204144 -.00000096  00000+0  00000+0 0  9996,2 55970   0.0495 253.5820 0003208  26.5927 316.5172  1.00271137  3296,1.00271137,0.0003208,GEO
55971,SES-19,2023,1436.07,3650.0,+,0.04,Active,1,GSO,USA,SES,Commercial,Communications,Falcon,1 55971U 23038B   24020.41340515  .00000092  00000+0  00000+0 0  9993,2 55971   0.0360 284.3118 0001788   8.0098 200.8803  1.00273992  3269,1.00273992,0.0001788,GEO
56367,O3B MPOWER F4,2023,287.93,-1.0,P,0.04,Active,0,MEO,USA,O3b Networks,Unknown,Unknown,Falcon,1 56367U 23059A   24020.45634487 -.00000020  00000+0  00000+0 0  9996,2 56367   0.0427  17.7285 0007449 287.7916  54.4057  5.00114784 14635,5.00114784,0.0007449,MEO
56368,O3B MPOWER F3,2023,287.66,-1.0,P,0.04,Active,0,MEO,USA,O3b Networks,Unknown,Unknown,Falcon,1 56368U 23059B   24012.12893369 -.00000011  00000+0  00000+0 0  9998,2 56368   0.0421  15.3409 0010633 317.5968  27.0046  5.00591674 10356,5.00591674,0.0010633,MEO
