OBJECT_NAME,OBJECT_ID,EPOCH,MEAN_MOTION,ECCENTRICITY,INCLINATION,RA_OF_ASC_NODE,ARG_OF_PERICENTER,MEAN_ANOMALY,EPHEMERIS_TYPE,CLASSIFICATION_TYPE,NORAD_CAT_ID,ELEMENT_SET_NO,REV_AT_EPOCH,BSTAR,MEAN_MOTION_DOT,MEAN_MOTION_DDOT
SES-20,2022-123A,2024-01-18T16:03:56.007072,1.00269559,.0000782,0.0194,152.0502,281.4751,181.8942,0,U,53960,999,471,0,-.95E-6,0
SES-21,2022-123B,2024-01-16T02:45:22.698720,1.00268798,.0001047,0.0311,35.7087,256.3561,93.4014,0,U,53961,999,469,0,.73E-6,0
O3B MPOWER F1,2022-174A,2024-01-20T12:18:07.369920,5.00118405,.0006216,0.0592,12.2346,299.4005,209.3448,0,U,54755,999,2140,0,-.21E-6,0
O3B MPOWER F2,2022-174B,2024-01-09T23:01:51.963744,4.99697769,.0006892,0.0605,11.3732,294.8293,53.7330,0,U,54756,999,2095,0,-.9E-7,0
SES-18,2023-038A,2024-01-20T14:41:20.380416,1.00271137,.0003208,0.0495,253.5820,26.5927,316.5172,0,U,55970,999,329,0,-.96E-6,0
SES-19,2023-038B,2024-01-20T09:55:18.204960,1.00273992,.0001788,0.0360,284.3118,8.0098,200.8803,0,U,55971,999,326,0,.92E-6,0
O3B MPOWER F4,2023-059A,2024-01-20T10:57:08.196768,5.00114784,.0007449,0.0427,17.7285,287.7916,54.4057,0,U,56367,999,1463,0,-.2E-6,0
O3B MPOWER F3,2023-059B,2024-01-12T03:05:39.870816,5.00591674,.0010633,0.0421,15.3409,317.5968,27.0046,0,U,56368,999,1035,0,-.11E-6,0
